OBJECT_NAME,OBJECT_ID,EPOCH,MEAN_MOTION,ECCENTRICITY,INCLINATION,RA_OF_ASC_NODE,ARG_OF_PERICENTER,MEAN_ANOMALY,EPHEMERIS_TYPE,CLASSIFICATION_TYPE,NORAD_CAT_ID,ELEMENT_SET_NO,REV_AT_EPOCH,BSTAR,MEAN_MOTION_DOT,MEAN_MOTION_DDOT
STARLINK-36447,2026-005X,2026-06-07T12:09:46.072800,15.27555028,.0002048,42.9998,90.6751,277.5319,82.5300,0,U,67425,999,2243,.58868E-3,.1596E-3,0
STARLINK-36146,2026-005Y,2026-06-07T12:59:43.160064,15.27575569,.0003157,43.0013,90.9338,255.0201,105.0302,0,U,67426,999,2242,.63501E-3,.17252E-3,0
STARLINK-36459,2026-005Z,2026-06-07T12:48:38.407104,15.27580185,.0000393,43.0021,90.8781,256.4780,103.6028,0,U,67427,999,2242,.778E-3,.21208E-3,0
STARLINK-36464,2026-005AA,2026-06-07T12:11:36.664800,15.27597108,.0002187,42.9954,90.6786,270.1392,89.9209,0,U,67428,999,2242,.8227E-3,.22458E-3,0
STARLINK-36513,2026-005AB,2026-06-07T12:02:21.919776,15.27579263,.0001741,42.9956,90.6283,271.1554,88.9098,0,U,67429,999,2242,.61941E-3,.16822E-3,0
STARLINK-36515,2026-005AC,2026-06-07T20:00:04.000032,15.27559190,.0000722,43.0026,89.0511,248.7254,17.9575,0,U,67430,999,585,.11764E-2,.32231E-3,0
STARLINK-36443,2026-005AD,2026-06-07T02:26:19.544640,15.27611805,.0000704,43.0012,92.7864,268.7343,91.3428,0,U,67431,999,2237,.94865E-3,.2596E-3,0
STARLINK-36460,2026-005AE,2026-06-06T02:31:59.722176,15.27589957,.00014311,43.0020,99.0721,268.2395,91.8292,0,U,67432,999,2220,.15074707E-2,.41466E-3,0
STARLINK-36542,2026-008A,2026-06-07T00:54:28.232064,15.27603524,.0000264,42.9984,60.9164,304.2307,55.8520,0,U,67445,999,2323,.94894E-3,.25961E-3,0
STARLINK-36539,2026-008B,2026-06-07T10:39:45.488736,15.27571870,.0001824,43.0080,58.8096,278.5457,81.5188,0,U,67446,999,2329,.91148E-3,.24898E-3,0
STARLINK-36440,2026-008C,2026-06-07T10:45:06.413760,15.27593752,.0000244,43.0048,57.9615,12.9235,347.1623,0,U,67447,999,2330,.76808E-3,.20943E-3,0
STARLINK-36423,2026-008D,2026-06-07T00:17:27.809088,15.27618400,.0001361,42.9993,60.7313,94.6518,265.4489,0,U,67448,999,2323,.69808E-3,.1902E-3,0
STARLINK-36519,2026-008E,2026-06-07T10:04:36.068160,15.27578396,.0001753,42.9943,58.6189,270.3482,89.7169,0,U,67449,999,2329,.76577E-3,.20869E-3,0
STARLINK-36525,2026-008F,2026-06-07T09:59:02.688576,15.27596966,.0002953,42.9948,58.5863,284.0195,76.0328,0,U,67450,999,2329,.84051E-3,.22953E-3,0
STARLINK-36511,2026-008G,2026-06-07T10:24:57.630240,15.27594690,.0000746,43.0033,58.7332,260.0129,100.0639,0,U,67451,999,2329,.58827E-3,.15968E-3,0
STARLINK-36524,2026-008H,2026-06-07T10:36:03.797568,15.27586818,.000197,43.0036,58.7904,284.0567,76.0065,0,U,67452,999,2329,.70745E-3,.1926E-3,0
STARLINK-36518,2026-008J,2026-06-07T10:06:26.787168,15.27589792,.0002339,42.9906,58.6142,269.8935,90.1649,0,U,67453,999,2329,.78765E-3,.21483E-3,0
STARLINK-36517,2026-008K,2026-06-07T10:15:42.371136,15.27568496,.0001812,43.0074,58.6882,273.5453,86.5192,0,U,67454,999,2329,.7668E-3,.20891E-3,0
STARLINK-36516,2026-008L,2026-06-06T00:30:18.779616,15.27603002,.00006005,43.0010,66.1807,243.0348,117.0443,0,U,67455,999,2308,.86963073E-3,.23762E-3,0
STARLINK-36493,2026-008M,2026-06-07T00:08:12.382368,15.27597623,.000313,43.0002,60.6714,273.2470,86.8023,0,U,67456,999,2323,.102E-2,.2793E-3,0
STARLINK-36529,2026-008N,2026-06-07T10:10:10.569216,15.27575163,.0001098,43.0021,58.6497,267.3991,92.6735,0,U,67457,999,2329,.7143E-3,.19443E-3,0
STARLINK-36528,2026-008P,2026-06-07T10:41:23.945856,15.27568434,.0001877,43.0163,57.9343,258.1336,101.9305,0,U,67458,999,2330,.89971E-3,.2457E-3,0
STARLINK-36546,2026-008Q,2026-06-07T10:30:30.485376,15.27599610,.0001181,43.0053,58.7538,262.4140,97.6577,0,U,67459,999,2329,.73325E-3,.19982E-3,0
STARLINK-36523,2026-008R,2026-06-07T10:21:14.870304,15.27605287,.000303,42.9953,58.7074,263.7555,96.2951,0,U,67460,999,2329,.1115E-2,.30575E-3,0
STARLINK-36522,2026-008S,2026-06-07T09:49:47.730144,15.27592671,.0002061,42.9985,58.5402,277.5874,82.4743,0,U,67461,999,2329,.62067E-3,.16863E-3,0
STARLINK-36504,2026-008T,2026-06-07T09:44:16.342944,15.27560726,.0001046,43.0030,58.5038,292.5303,67.5438,0,U,67462,999,2329,.72924E-3,.19847E-3,0
STARLINK-36505,2026-008U,2026-06-07T00:13:45.404256,15.27569229,.0000937,42.9996,60.6896,265.1269,94.9476,0,U,67463,999,2323,.36319E-4,.737E-5,0
STARLINK-36421,2026-008V,2026-06-07T10:46:56.991936,15.27577316,.0001315,43.0036,57.9766,269.4384,90.6317,0,U,67464,999,2330,.96073E-4,.2382E-4,0
STARLINK-36437,2026-008W,2026-06-07T17:14:41.741088,15.27575576,.0004281,43.0014,56.5691,336.5578,23.5078,0,U,67465,999,2334,.91147E-3,.24905E-3,0
STARLINK-36520,2026-008X,2026-06-07T10:26:46.350816,15.27607125,.0004906,43.0030,58.7352,264.9367,95.0925,0,U,67466,999,2329,.57737E-3,.15676E-3,0
