[ {"name": "STARLINK-36447", "line1": "1 67425U 26005X   26158.50678325  .00015960  00000+0  58868-3 0  9993", "line2": "2 67425  42.9998  90.6751 0002048 277.5319  82.5300 15.27555028 22432"}, {"name": "STARLINK-36146", "line1": "1 67426U 26005Y   26158.54147176  .00017252  00000+0  63501-3 0  9999", "line2": "2 67426  43.0013  90.9338 0003157 255.0201 105.0302 15.27575569 22424"}, {"name": "STARLINK-36459", "line1": "1 67427U 26005Z   26158.53377786  .00021208  00000+0  77800-3 0  9994", "line2": "2 67427  43.0021  90.8781 0000393 256.4780 103.6028 15.27580185 22420"}, {"name": "STARLINK-36464", "line1": "1 67428U 26005AA  26158.50806325  .00022458  00000+0  82270-3 0  9993", "line2": "2 67428  42.9954  90.6786 0002187 270.1392  89.9209 15.27597108 22422"}, {"name": "STARLINK-36513", "line1": "1 67429U 26005AB  26158.50164259  .00016822  00000+0  61941-3 0  9997", "line2": "2 67429  42.9956  90.6283 0001741 271.1554  88.9098 15.27579263 22420"}, {"name": "STARLINK-36515", "line1": "1 67430U 26005AC  26158.83337963  .00032231  00000+0  11764-2 0  9998", "line2": "2 67430  43.0026  89.0511 0000722 248.7254  17.9575 15.27559190  5850"}, {"name": "STARLINK-36443", "line1": "1 67431U 26005AD  26158.10161510  .00025960  00000+0  94865-3 0  9997", "line2": "2 67431  43.0012  92.7864 0000704 268.7343  91.3428 15.27611805 22370"}, {"name": "STARLINK-36460", "line1": "1 67432U 26005AE  26157.10555234  .00041466  00000+0  15075-2 0  9991", "line2": "2 67432  43.0020  99.0721 0001431 268.2395  91.8292 15.27589957 22200"}, {"name": "STARLINK-36542", "line1": "1 67445U 26008A   26158.03782676  .00025961  00000+0  94894-3 0  9992", "line2": "2 67445  42.9984  60.9164 0000264 304.2307  55.8520 15.27603524 23231"}, {"name": "STARLINK-36539", "line1": "1 67446U 26008B   26158.44427649  .00024898  00000+0  91148-3 0  9991", "line2": "2 67446  43.0080  58.8096 0001824 278.5457  81.5188 15.27571870 23293"}, {"name": "STARLINK-36440", "line1": "1 67447U 26008C   26158.44799090  .00020943  00000+0  76808-3 0  9997", "line2": "2 67447  43.0048  57.9615 0000244  12.9235 347.1623 15.27593752 23304"}, {"name": "STARLINK-36423", "line1": "1 67448U 26008D   26158.01212742  .00019020  00000+0  69808-3 0  9991", "line2": "2 67448  42.9993  60.7313 0001361  94.6518 265.4489 15.27618400 23233"}, {"name": "STARLINK-36519", "line1": "1 67449U 26008E   26158.41986190  .00020869  00000+0  76577-3 0  9995", "line2": "2 67449  42.9943  58.6189 0001753 270.3482  89.7169 15.27578396 23291"}, {"name": "STARLINK-36525", "line1": "1 67450U 26008F   26158.41600334  .00022953  00000+0  84051-3 0  9992", "line2": "2 67450  42.9948  58.5863 0002953 284.0195  76.0328 15.27596966 23291"}, {"name": "STARLINK-36511", "line1": "1 67451U 26008G   26158.43400035  .00015968  00000+0  58827-3 0  9991", "line2": "2 67451  43.0033  58.7332 0000746 260.0129 100.0639 15.27594690 23296"}, {"name": "STARLINK-36524", "line1": "1 67452U 26008H   26158.44171062  .00019260  00000+0  70745-3 0  9990", "line2": "2 67452  43.0036  58.7904 0001970 284.0567  76.0065 15.27586818 23295"}, {"name": "STARLINK-36518", "line1": "1 67453U 26008J   26158.42114337  .00021483  00000+0  78765-3 0  9991", "line2": "2 67453  42.9906  58.6142 0002339 269.8935  90.1649 15.27589792 23292"}, {"name": "STARLINK-36517", "line1": "1 67454U 26008K   26158.42757374  .00020891  00000+0  76680-3 0  9992", "line2": "2 67454  43.0074  58.6882 0001812 273.5453  86.5192 15.27568496 23294"}, {"name": "STARLINK-36516", "line1": "1 67455U 26008L   26157.02105069  .00023762  00000+0  86963-3 0  9991", "line2": "2 67455  43.0010  66.1807 0000600 243.0348 117.0443 15.27603002 23084"}, {"name": "STARLINK-36493", "line1": "1 67456U 26008M   26158.00569887  .00027930  00000+0  10200-2 0  9994", "line2": "2 67456  43.0002  60.6714 0003130 273.2470  86.8023 15.27597623 23239"}, {"name": "STARLINK-36529", "line1": "1 67457U 26008N   26158.42373344  .00019443  00000+0  71430-3 0  9995", "line2": "2 67457  43.0021  58.6497 0001098 267.3991  92.6735 15.27575163 23295"}, {"name": "STARLINK-36528", "line1": "1 67458U 26008P   26158.44541604  .00024570  00000+0  89971-3 0  9990", "line2": "2 67458  43.0163  57.9343 0001877 258.1336 101.9305 15.27568434 23303"}, {"name": "STARLINK-36546", "line1": "1 67459U 26008Q   26158.43785284  .00019982  00000+0  73325-3 0  9991", "line2": "2 67459  43.0053  58.7538 0001181 262.4140  97.6577 15.27599610 23296"}, {"name": "STARLINK-36523", "line1": "1 67460U 26008R   26158.43142211  .00030575  00000+0  11150-2 0  9998", "line2": "2 67460  42.9953  58.7074 0003030 263.7555  96.2951 15.27605287 23298"}, {"name": "STARLINK-36522", "line1": "1 67461U 26008S   26158.40958021  .00016863  00000+0  62067-3 0  9998", "line2": "2 67461  42.9985  58.5402 0002061 277.5874  82.4743 15.27592671 23295"}, {"name": "STARLINK-36504", "line1": "1 67462U 26008T   26158.40574471  .00019847  00000+0  72924-3 0  9990", "line2": "2 67462  43.0030  58.5038 0001046 292.5303  67.5438 15.27560726 23291"}, {"name": "STARLINK-36505", "line1": "1 67463U 26008U   26158.00955329  .00000737  00000+0  36319-4 0  9999", "line2": "2 67463  42.9996  60.6896 0000937 265.1269  94.9476 15.27569229 23239"}, {"name": "STARLINK-36421", "line1": "1 67464U 26008V   26158.44927074  .00002382  00000+0  96073-4 0  9995", "line2": "2 67464  43.0036  57.9766 0001315 269.4384  90.6317 15.27577316 23309"}, {"name": "STARLINK-36437", "line1": "1 67465U 26008W   26158.71853867  .00024905  00000+0  91147-3 0  9995", "line2": "2 67465  43.0014  56.5691 0004281 336.5578  23.5078 15.27575576 23343"}, {"name": "STARLINK-36520", "line1": "1 67466U 26008X   26158.43525869  .00015676  00000+0  57737-3 0  9995", "line2": "2 67466  43.0030  58.7352 0004906 264.9367  95.0925 15.27607125 23299"}]